*******************************************************************************
JPL/HORIZONS               980 Anacostia (A921 WG)         2020-Jun-22 09:30:42
Rec #:     980 (+COV) Soln.date: 2020-May-20_01:16:25   # obs: 2133 (1929-2020)
 
IAU76/J2000 helio. ecliptic osc. elements (au, days, deg., period=Julian yrs):
 
  EPOCH=  2455982.5 ! 2012-Feb-25.00 (TDB)         Residual RMS= .28673
   EC= .1999024136383668   QR= 2.193158776584249   TP= 2456139.4047386642
   OM= 285.8544953256617   W=  70.3179023563079    IN= 15.89879865285542
   A= 2.741114101540322    MA= 325.9239330377457   ADIST= 3.289069426496396
   PER= 4.53836            N= .217176781           ANGMOM= .027905476
   DAN= 2.46558            DDN= 2.82154            L= 355.4529859
   B= 14.9475316           MOID= 1.24188006        TP= 2012-Jul-30.9047386642
 
Asteroid physical parameters (km, seconds, rotational period in hours):
   GM= n.a.                RAD= 37.3395            ROTPER= 20.117
   H= 7.8                  G= .060                 B-V= .915
                           ALBEDO= .229            STYP= L
 
ASTEROID comments: 
1: soln ref.= JPL#38, OCC=0
2: source=ORB
*******************************************************************************
 
 
*******************************************************************************
Ephemeris / WWW_USER Mon Jun 22 09:30:42 2020 Pasadena, USA      / Horizons
*******************************************************************************
Target body name: 980 Anacostia (A921 WG)         {source: JPL#38}
Center body name: Solar System Barycenter (0)     {source: DE431}
Center-site name: BODY CENTER
*******************************************************************************
Start time      : A.D. 1969-Jun-28 00:00:00.0000 TDB
Stop  time      : A.D. 2071-May-04 00:00:00.0000 TDB
Step-size       : 7200 minutes
*******************************************************************************
Center geodetic : 0.00000000,0.00000000,0.0000000 {E-lon(deg),Lat(deg),Alt(km)}
Center cylindric: 0.00000000,0.00000000,0.0000000 {E-lon(deg),Dxy(km),Dz(km)}
Center radii    : (undefined)                                                  
Small perturbers: Yes                             {source: SB431-N16}
Output units    : AU-D
Output type     : GEOMETRIC cartesian states
Output format   : 2 (position and velocity)
Reference frame : Ecliptic of J2000.0
*******************************************************************************
Initial IAU76/J2000 heliocentric ecliptic osculating elements (au, days, deg.):
  EPOCH=  2455982.5 ! 2012-Feb-25.00 (TDB)         Residual RMS= .28673        
   EC= .1999024136383668   QR= 2.193158776584249   TP= 2456139.4047386642      
   OM= 285.8544953256617   W=  70.3179023563079    IN= 15.89879865285542       
  Equivalent ICRF heliocentric equatorial cartesian coordinates (au, au/d):
   X= 1.346450419940533E+00  Y=-1.823180826593559E+00  Z=-5.487221892015139E-01
  VX= 8.309784811587119E-03 VY= 6.418675809974825E-03 VZ= 5.965215140699170E-03
Asteroid physical parameters (km, seconds, rotational period in hours):        
   GM= n.a.                RAD= 37.3395            ROTPER= 20.117              
   H= 7.8                  G= .060                 B-V= .915                   
                           ALBEDO= .229            STYP= L                     
*******************************************************************************
            JDTDB,            Calendar Date (TDB),        delta-T,                      X,                      Y,                      Z,                     VX,                     VY,                     VZ,
******************************************************************************************************************************************************************************************************************
$$SOE
2475260.500000000, A.D. 2064-Dec-06 00:00:00.0000,      69.183222, -3.150339841249993E+00, -2.370399044903985E-01, -8.832375314184894E-01,  1.056273833429007E-03, -8.416488544664357E-03, -3.292233435488823E-04,
2475265.500000000, A.D. 2064-Dec-11 00:00:00.0000,      69.183353, -3.144729881058683E+00, -2.790965423108762E-01, -8.847913912088659E-01,  1.187704664068762E-03, -8.405871436322548E-03, -2.923002207078094E-04,
2475270.500000000, A.D. 2064-Dec-16 00:00:00.0000,      69.183489, -3.138462859915955E+00, -3.210956635169039E-01, -8.861603324529315E-01,  1.319096306291144E-03, -8.393481115972528E-03, -2.552563948147774E-04,
2475275.500000000, A.D. 2064-Dec-21 00:00:00.0000,      69.183628, -3.131539002493194E+00, -3.630283900553179E-01, -8.873437586963506E-01,  1.450437245228252E-03, -8.379312736470208E-03, -2.180946931642456E-04,
2475280.500000000, A.D. 2064-Dec-26 00:00:00.0000,      69.183768, -3.123958591393444E+00, -4.048858188887150E-01, -8.883410876678914E-01,  1.581715821065743E-03, -8.363361151253334E-03, -1.808179622544520E-04,
2475285.500000000, A.D. 2064-Dec-31 00:00:00.0000,      69.183911, -3.115721967906498E+00, -4.466590204983939E-01, -8.891517513837233E-01,  1.712920216879624E-03, -8.345620914391555E-03, -1.434290711047534E-04,
2475290.500000000, A.D. 2065-Jan-05 00:00:00.0000,      69.184057, -3.106829532825205E+00, -4.883390373880941E-01, -8.897751962684676E-01,  1.844038446292744E-03, -8.326086280851658E-03, -1.059309146529834E-04,
2475295.500000000, A.D. 2065-Jan-10 00:00:00.0000,      69.184202, -3.097281747324136E+00, -5.299168825894904E-01, -8.902108832935361E-01,  1.975058340870062E-03, -8.304751206921408E-03, -6.832641727303772E-05,
2475300.500000000, A.D. 2065-Jan-15 00:00:00.0000,      69.184346, -3.087079133901937E+00, -5.713835381700906E-01, -8.904582881333333E-01,  2.105967537253702E-03, -8.281609350742961E-03, -3.061853639964592E-05,
2475305.500000000, A.D. 2065-Jan-20 00:00:00.0000,      69.184485, -3.076222277388598E+00, -6.127299537440400E-01, -8.905169013397992E-01,  2.236753464060253E-03, -8.256654072943478E-03,  7.189733762517184E-06,
2475310.500000000, A.D. 2065-Jan-25 00:00:00.0000,      69.184619, -3.064711826018807E+00, -6.539470449863598E-01, -8.903862285356877E-01,  2.367403328554182E-03, -8.229878437381311E-03,  4.509535845686109E-05,
2475315.500000000, A.D. 2065-Jan-30 00:00:00.0000,      69.184750, -3.052548492572497E+00, -6.950256921512559E-01, -8.900657906269315E-01,  2.497904103094166E-03, -8.201275212032250E-03,  8.309525851943164E-05,
2475320.500000000, A.D. 2065-Feb-04 00:00:00.0000,      69.184876, -3.039733055583766E+00, -7.359567385952519E-01, -8.895551240344861E-01,  2.628242511335839E-03, -8.170836870037066E-03,  1.211863064408912E-04,
2475325.500000000, A.D. 2065-Feb-09 00:00:00.0000,      69.184997, -3.026266360619426E+00, -7.767309893059998E-01, -8.888537809460957E-01,  2.758405014169945E-03, -8.138555590925004E-03,  1.593653223352934E-04,
2475330.500000000, A.D. 2065-Feb-14 00:00:00.0000,      69.185108, -3.012149321628573E+00, -8.173392094376611E-01, -8.879613295884636E-01,  2.888377795375585E-03, -8.104423262020712E-03,  1.976290698068219E-04,
2475335.500000000, A.D. 2065-Feb-19 00:00:00.0000,      69.185210, -2.997382922364626E+00, -8.577721228537792E-01, -8.868773545203479E-01,  3.018146746984559E-03, -8.068431480031682E-03,  2.359742517163799E-04,
2475340.500000000, A.D. 2065-Feb-24 00:00:00.0000,      69.185302, -2.981968217881230E+00, -8.980204106785533E-01, -8.856014569470618E-01,  3.147697454365506E-03, -8.030571552824838E-03,  2.743975058531454E-04,
2475345.500000000, A.D. 2065-Mar-01 00:00:00.0000,      69.185385, -2.965906336103387E+00, -9.380747098575217E-01, -8.841332550568251E-01,  3.277015181054188E-03, -7.990834501428977E-03,  3.128954005171256E-04,
2475350.500000000, A.D. 2065-Mar-06 00:00:00.0000,      69.185458, -2.949198479475269E+00, -9.779256117290437E-01, -8.824723843795875E-01,  3.406084853215682E-03, -7.949211062356127E-03,  3.514644299338732E-04,
2475355.500000000, A.D. 2065-Mar-11 00:00:00.0000,      69.185522, -2.931845926687037E+00, -1.017563660608124E+00, -8.806184981693620E-01,  3.534891043557752E-03, -7.905691690200323E-03,  3.901010094284077E-04,
2475360.500000000, A.D. 2065-Mar-16 00:00:00.0000,      69.185573, -2.913850034483536E+00, -1.056979352383552E+00, -8.785712678111993E-01,  3.663417954691151E-03, -7.860266560328946E-03,  4.288014704211665E-04,
2475365.500000000, A.D. 2065-Mar-21 00:00:00.0000,      69.185610, -2.895212239557100E+00, -1.096163133128448E+00, -8.763303832532621E-01,  3.791649402168480E-03, -7.812925571550165E-03,  4.675620554189207E-04,
2475370.500000000, A.D. 2065-Mar-26 00:00:00.0000,      69.185635, -2.875934060525522E+00, -1.135105397724218E+00, -8.738955534637165E-01,  3.919568797399679E-03, -7.763658348839487E-03,  5.063789131043864E-04,
2475375.500000000, A.D. 2065-Mar-31 00:00:00.0000,      69.185649, -2.856017099995644E+00, -1.173796488498664E+00, -8.712665069119314E-01,  4.047159130487327E-03, -7.712454246302093E-03,  5.452480935141700E-04,
2475380.500000000, A.D. 2065-Apr-05 00:00:00.0000,      69.185653, -2.835463046713060E+00, -1.212226693879831E+00, -8.684429920737042E-01,  4.174402952925334E-03, -7.659302350529347E-03,  5.841655432364289E-04,
2475385.500000000, A.D. 2065-Apr-10 00:00:00.0000,      69.185645, -2.814273677798890E+00, -1.250386247067860E+00, -8.654247779606261E-01,  4.301282360064571E-03, -7.604191484454180E-03,  6.231271005469994E-04,
2475390.500000000, A.D. 2065-Apr-15 00:00:00.0000,      69.185623, -2.792450861074995E+00, -1.288265324727475E+00, -8.622116546740594E-01,  4.427778973247836E-03, -7.547110211762543E-03,  6.621284904137799E-04,
2475395.500000000, A.D. 2065-Apr-20 00:00:00.0000,      69.185588, -2.769996557479530E+00, -1.325854045704002E+00, -8.588034339845522E-01,  4.553873921526811E-03, -7.488046841889584E-03,  7.011653193130212E-04,
